{"type": "FeatureCollection", "features": [ {"type": "Feature", "properties": {"norad_id": 38779, "name": "GSAT-10 (GAGAN/PRN 128)", "group": "gnss", "lat": -0.041404894487046255, "lon": -124.03815354895147, "alt_km": 35790.08842375821, "timestamp": "2025-12-25T03:55:56.598984+00:00", "meta": {"OBJECT_NAME": "GSAT-10 (GAGAN/PRN 128)", "OBJECT_ID": "2012-051B", "EPOCH": "2025-12-24T19:41:03.379200", "MEAN_MOTION": 1.00271141, "ECCENTRICITY": 0.0002194, "INCLINATION": 0.0629, "RA_OF_ASC_NODE": 262.2405, "ARG_OF_PERICENTER": 219.6961, "MEAN_ANOMALY": 349.9492, "EPHEMERIS_TYPE": 0, "CLASSIFICATION_TYPE": "U", "NORAD_CAT_ID": 38779, "ELEMENT_SET_NO": 999, "REV_AT_EPOCH": 4835, "BSTAR": 0, "MEAN_MOTION_DOT": -1.44e-06, "MEAN_MOTION_DDOT": 0}, "tle": {"line1": "1 38779U 12051B   25358.82017800 -.00000144  00000+0  00000+0 0  9990", "line2": "2 38779   0.0629 262.2405 0002194 219.6961 349.9492  1.00271141 48351"}}, "geometry": {"type": "Point", "coordinates": [-124.03815354895147, -0.041404894487046255]}}, {"type": "Feature", "properties": {"norad_id": 38833, "name": "GPS BIIF-3  (PRN 24)", "group": "gnss", "lat": -49.940966163908016, "lon": 32.18210296042063, "alt_km": 20650.26058831136, "timestamp": "2025-12-25T03:55:56.598996+00:00", "meta": {"OBJECT_NAME": "GPS BIIF-3  (PRN 24)", "OBJECT_ID": "2012-053A", "EPOCH": "2025-12-23T07:42:27.651168", "MEAN_MOTION": 2.00565064, "ECCENTRICITY": 0.01760539, "INCLINATION": 53.5596, "RA_OF_ASC_NODE": 150.8054, "ARG_OF_PERICENTER": 64.149, "MEAN_ANOMALY": 297.6308, "EPHEMERIS_TYPE": 0, "CLASSIFICATION_TYPE": "U", "NORAD_CAT_ID": 38833, "ELEMENT_SET_NO": 999, "REV_AT_EPOCH": 9591, "BSTAR": 0, "MEAN_MOTION_DOT": 7.4e-07, "MEAN_MOTION_DDOT": 0}, "tle": {"line1": "1 38833U 12053A   25357.32115337  .00000074  00000+0  00000+0 0  9992", "line2": "2 38833  53.5596 150.8054 0176053  64.1490 297.6308  2.00565064 95916"}}, "geometry": {"type": "Point", "coordinates": [32.18210296042063, -49.940966163908016]}}, {"type": "Feature", "properties": {"norad_id": 38857, "name": "GSAT0103 (GALILEO-FM3)", "group": "gnss", "lat": -44.868624901189825, "lon": 63.59855498694796, "alt_km": 23219.896376282348, "timestamp": "2025-12-25T03:55:56.599008+00:00", "meta": {"OBJECT_NAME": "GSAT0103 (GALILEO-FM3)", "OBJECT_ID": "2012-055A", "EPOCH": "2025-12-22T21:54:43.252704", "MEAN_MOTION": 1.70473351, "ECCENTRICITY": 0.0002995, "INCLINATION": 55.698, "RA_OF_ASC_NODE": 106.3873, "ARG_OF_PERICENTER": 269.858, "MEAN_ANOMALY": 90.0891, "EPHEMERIS_TYPE": 0, "CLASSIFICATION_TYPE": "U", "NORAD_CAT_ID": 38857, "ELEMENT_SET_NO": 999, "REV_AT_EPOCH": 8200, "BSTAR": 0, "MEAN_MOTION_DOT": 1e-07, "MEAN_MOTION_DDOT": 0}, "tle": {"line1": "1 38857U 12055A   25356.91300061  .00000010  00000+0  00000+0 0  9994", "line2": "2 38857  55.6980 106.3873 0002995 269.8580  90.0891  1.70473351 82005"}}, "geometry": {"type": "Point", "coordinates": [63.59855498694796, -44.868624901189825]}}, {"type": "Feature", "properties": {"norad_id": 38953, "name": "BEIDOU-2 G6 (C02)", "group": "gnss", "lat": 1.2576490368241708, "lon": -123.183421669554, "alt_km": 35806.70768092974, "timestamp": "2025-12-25T03:55:56.599022+00:00", "meta": {"OBJECT_NAME": "BEIDOU-2 G6 (C02)", "OBJECT_ID": "2012-059A", "EPOCH": "2025-12-24T22:31:57.186048", "MEAN_MOTION": 1.00276322, "ECCENTRICITY": 0.0007997, "INCLINATION": 3.9783, "RA_OF_ASC_NODE": 75.3931, "ARG_OF_PERICENTER": 292.4419, "MEAN_ANOMALY": 147.7879, "EPHEMERIS_TYPE": 0, "CLASSIFICATION_TYPE": "U", "NORAD_CAT_ID": 38953, "ELEMENT_SET_NO": 999, "REV_AT_EPOCH": 4816, "BSTAR": 0, "MEAN_MOTION_DOT": -1.56e-06, "MEAN_MOTION_DDOT": 0}, "tle": {"line1": "1 38953U 12059A   25358.93885632 -.00000156  00000+0  00000+0 0  9993", "line2": "2 38953   3.9783  75.3931 0007997 292.4419 147.7879  1.00276322 48166"}}, "geometry": {"type": "Point", "coordinates": [-123.183421669554, 1.2576490368241708]}}, {"type": "Feature", "properties": {"norad_id": 38977, "name": "LUCH 5B (SDCM/PRN 125)", "group": "gnss", "lat": 10.082653809450449, "lon": 136.43272416775588, "alt_km": 35794.93111965268, "timestamp": "2025-12-25T03:55:56.599034+00:00", "meta": {"OBJECT_NAME": "LUCH 5B (SDCM/PRN 125)", "OBJECT_ID": "2012-061A", "EPOCH": "2025-12-23T23:19:30.865728", "MEAN_MOTION": 1.00271916, "ECCENTRICITY": 0.0006602, "INCLINATION": 10.1038, "RA_OF_ASC_NODE": 51.5975, "ARG_OF_PERICENTER": 196.0445, "MEAN_ANOMALY": 178.6636, "EPHEMERIS_TYPE": 0, "CLASSIFICATION_TYPE": "U", "NORAD_CAT_ID": 38977, "ELEMENT_SET_NO": 999, "REV_AT_EPOCH": 4785, "BSTAR": 0, "MEAN_MOTION_DOT": -1.21e-06, "MEAN_MOTION_DDOT": 0}, "tle": {"line1": "1 38977U 12061A   25357.97188502 -.00000121  00000+0  00000+0 0  9999", "line2": "2 38977  10.1038  51.5975 0006602 196.0445 178.6636  1.00271916 47852"}}, "geometry": {"type": "Point", "coordinates": [136.43272416775588, 10.082653809450449]}}, {"type": "Feature", "properties": {"norad_id": 39155, "name": "COSMOS 2485 (747)", "group": "gnss", "lat": -65.22968645820391, "lon": -16.259878624256892, "alt_km": 19085.47761417849, "timestamp": "2025-12-25T03:55:56.599046+00:00", "meta": {"OBJECT_NAME": "COSMOS 2485 (747)", "OBJECT_ID": "2013-019A", "EPOCH": "2025-12-23T21:02:08.451744", "MEAN_MOTION": 2.13103232, "ECCENTRICITY": 0.00250068, "INCLINATION": 65.319, "RA_OF_ASC_NODE": 79.4928, "ARG_OF_PERICENTER": 230.5113, "MEAN_ANOMALY": 129.3147, "EPHEMERIS_TYPE": 0, "CLASSIFICATION_TYPE": "U", "NORAD_CAT_ID": 39155, "ELEMENT_SET_NO": 999, "REV_AT_EPOCH": 9854, "BSTAR": 0, "MEAN_MOTION_DOT": 2e-08, "MEAN_MOTION_DDOT": 0}, "tle": {"line1": "1 39155U 13019A   25357.87648671  .00000002  00000+0  00000+0 0  9996", "line2": "2 39155  65.3190  79.4928 0025006 230.5113 129.3147  2.13103232 98546"}}, "geometry": {"type": "Point", "coordinates": [-16.259878624256892, -65.22968645820391]}}, {"type": "Feature", "properties": {"norad_id": 39166, "name": "GPS BIIF-4  (PRN 27)", "group": "gnss", "lat": -9.420647405291778, "lon": -90.6969289811993, "alt_km": 19997.389262738863, "timestamp": "2025-12-25T03:55:56.599060+00:00", "meta": {"OBJECT_NAME": "GPS BIIF-4  (PRN 27)", "OBJECT_ID": "2013-023A", "EPOCH": "2025-12-24T04:22:45.403680", "MEAN_MOTION": 2.0056459, "ECCENTRICITY": 0.01385961, "INCLINATION": 54.6422, "RA_OF_ASC_NODE": 276.1031, "ARG_OF_PERICENTER": 48.7604, "MEAN_ANOMALY": 312.4729, "EPHEMERIS_TYPE": 0, "CLASSIFICATION_TYPE": "U", "NORAD_CAT_ID": 39166, "ELEMENT_SET_NO": 999, "REV_AT_EPOCH": 9237, "BSTAR": 0, "MEAN_MOTION_DOT": -1.6e-07, "MEAN_MOTION_DDOT": 0}, "tle": {"line1": "1 39166U 13023A   25358.18246995 -.00000016  00000+0  00000+0 0  9997", "line2": "2 39166  54.6422 276.1031 0138596  48.7604 312.4729  2.00564590 92371"}}, "geometry": {"type": "Point", "coordinates": [-90.6969289811993, -9.420647405291778]}}, {"type": "Feature", "properties": {"norad_id": 39199, "name": "IRNSS-1A", "group": "gnss", "lat": 21.319965158377382, "lon": -146.9636414866453, "alt_km": 35751.19099001752, "timestamp": "2025-12-25T03:55:56.599072+00:00", "meta": {"OBJECT_NAME": "IRNSS-1A", "OBJECT_ID": "2013-034A", "EPOCH": "2025-12-24T18:29:47.558976", "MEAN_MOTION": 1.00273605, "ECCENTRICITY": 0.0023814, "INCLINATION": 35.3368, "RA_OF_ASC_NODE": 66.3779, "ARG_OF_PERICENTER": 212.7296, "MEAN_ANOMALY": 146.6998, "EPHEMERIS_TYPE": 0, "CLASSIFICATION_TYPE": "U", "NORAD_CAT_ID": 39199, "ELEMENT_SET_NO": 999, "REV_AT_EPOCH": 4561, "BSTAR": 0, "MEAN_MOTION_DOT": 7.9e-07, "MEAN_MOTION_DDOT": 0}, "tle": {"line1": "1 39199U 13034A   25358.77068934  .00000079  00000+0  00000+0 0  9993", "line2": "2 39199  35.3368  66.3779 0023814 212.7296 146.6998  1.00273605 45619"}}, "geometry": {"type": "Point", "coordinates": [-146.9636414866453, 21.319965158377382]}}, {"type": "Feature", "properties": {"norad_id": 39533, "name": "GPS BIIF-5  (PRN 30)", "group": "gnss", "lat": -5.778718635762691, "lon": 152.13582702089093, "alt_km": 20310.17862664273, "timestamp": "2025-12-25T03:55:56.599083+00:00", "meta": {"OBJECT_NAME": "GPS BIIF-5  (PRN 30)", "OBJECT_ID": "2014-008A", "EPOCH": "2025-12-23T16:16:25.020768", "MEAN_MOTION": 2.00548852, "ECCENTRICITY": 0.00795532, "INCLINATION": 53.5993, "RA_OF_ASC_NODE": 156.4877, "ARG_OF_PERICENTER": 225.9161, "MEAN_ANOMALY": 133.4108, "EPHEMERIS_TYPE": 0, "CLASSIFICATION_TYPE": "U", "NORAD_CAT_ID": 39533, "ELEMENT_SET_NO": 999, "REV_AT_EPOCH": 8616, "BSTAR": 0, "MEAN_MOTION_DOT": 8.2e-07, "MEAN_MOTION_DDOT": 0}, "tle": {"line1": "1 39533U 14008A   25357.67806737  .00000082  00000+0  00000+0 0  9990", "line2": "2 39533  53.5993 156.4877 0079553 225.9161 133.4108  2.00548852 86167"}}, "geometry": {"type": "Point", "coordinates": [152.13582702089093, -5.778718635762691]}}, {"type": "Feature", "properties": {"norad_id": 39617, "name": "ASTRA 5B (EGNOS/PRN 123)", "group": "gnss", "lat": 0.018408508795378118, "lon": 176.34780695220545, "alt_km": 35790.77032014819, "timestamp": "2025-12-25T03:55:56.599095+00:00", "meta": {"OBJECT_NAME": "ASTRA 5B (EGNOS/PRN 123)", "OBJECT_ID": "2014-011B", "EPOCH": "2025-12-24T16:38:05.756352", "MEAN_MOTION": 1.00271059, "ECCENTRICITY": 0.0004591, "INCLINATION": 0.0446, "RA_OF_ASC_NODE": 12.7901, "ARG_OF_PERICENTER": 267.1245, "MEAN_ANOMALY": 86.5663, "EPHEMERIS_TYPE": 0, "CLASSIFICATION_TYPE": "U", "NORAD_CAT_ID": 39617, "ELEMENT_SET_NO": 999, "REV_AT_EPOCH": 4291, "BSTAR": 0, "MEAN_MOTION_DOT": 1.58e-06, "MEAN_MOTION_DDOT": 0}, "tle": {"line1": "1 39617U 14011B   25358.69312218  .00000158  00000+0  00000+0 0  9990", "line2": "2 39617   0.0446  12.7901 0004591 267.1245  86.5663  1.00271059 42913"}}, "geometry": {"type": "Point", "coordinates": [176.34780695220545, 0.018408508795378118]}}]}